NORAD_CAT_ID,OBJECT_NAME,OBJECT_TYPE,EPOCH,MEAN_MOTION,ECCENTRICITY,INCLINATION,RA_OF_ASC_NODE,ARG_OF_PERICENTER,MEAN_ANOMALY,BSTAR,MEAN_MOTION_DOT,MEAN_MOTION_DDOT,TLE_LINE0,TLE_LINE1,TLE_LINE2,SEMIMAJOR_AXIS,PERIOD,APOGEE,PERIGEE,DECAYED
51125.0,STARLINK-3387,PAYLOAD,2022-06-06 14:00:01,15.08843264,0.0001564,53.2182,338.7518,60.3322,282.3557,-0.00058968,-9.661e-05,0.0,0 STARLINK-3387,1 51125U 22005X   22157.58334491 -.00009661  00000-0 -58968-3 0  9990,2 51125  53.2182 338.7518 0001564  60.3322 282.3557 15.08843264 22708,6917.87,95.437,540.817,538.653,0.0
51125.0,STARLINK-3387,PAYLOAD,2022-06-06 22:00:00,15.08814925,0.0001706,53.2181,337.25699999999995,53.3731,300.9127,0.00274,0.00043559,0.0,0 STARLINK-3387,1 51125U 22005X   22157.91667824  .00043559  00000-0  27400-2 0  9994,2 51125  53.2181 337.2570 0001706  53.3731 300.9127 15.08814925  1308,6917.956999999999,95.439,541.002,538.6419999999998,0.0
51125.0,STARLINK-3387,PAYLOAD,2022-06-07 12:20:01,15.08841393,0.0001619,53.218,334.5741,59.6177,300.4975,4.0779e-05,3.61e-06,0.0,0 STARLINK-3387,1 51125U 22005X   22158.51390985  .00000361  00000-0  40779-4 0  9992,2 51125  53.2180 334.5741 0001619  59.6177 300.4975 15.08841393 22840,6917.876,95.437,540.861,538.621,0.0
51125.0,STARLINK-3387,PAYLOAD,2022-06-07 20:16:57,15.08847204,0.0001606,53.2187,333.0871,57.3885,302.7262,7.3223e-05,8.78e-06,0.0,0 STARLINK-3387,1 51125U 22005X   22158.84510460  .00000878  00000-0  73223-4 0  9993,2 51125  53.2187 333.0871 0001606  57.3885 302.7262 15.08847204 21774,6917.858,95.437,540.8340000000002,538.612,0.0
51125.0,STARLINK-3387,PAYLOAD,2022-06-08 10:35:25,15.0883948,0.0001622,53.2173,330.4102,60.4638,299.6515,1.2595e-05,-8.8e-07,0.0,0 STARLINK-3387,1 51125U 22005X   22159.44127060 -.00000088  00000-0  12595-4 0  9999,2 51125  53.2173 330.4102 0001622  60.4638 299.6515 15.08839480 21868,6917.882,95.438,540.869,538.625,0.0
51125.0,STARLINK-3387,PAYLOAD,2022-06-08 20:07:44,15.0883807,0.000164,53.2173,328.6262,56.4827,303.6321,8.297299999999999e-05,1.033e-05,0.0,0 STARLINK-3387,1 51125U 22005X   22159.83870938  .00001033  00000-0  82973-4 0  9998,2 51125  53.2173 328.6262 0001640  56.4827 303.6321 15.08838070 21921,6917.886,95.438,540.886,538.617,0.0
51125.0,STARLINK-3387,PAYLOAD,2022-06-09 04:04:40,15.08829631,0.0001508,53.2176,327.1399,56.1998,303.9138,-1.5722e-05,-5.38e-06,0.0,0 STARLINK-3387,1 51125U 22005X   22160.16991811 -.00000538  00000-0 -15722-4 0  9999,2 51125  53.2176 327.1399 0001508  56.1998 303.9138 15.08829631 23090,6917.9119999999975,95.438,540.82,538.734,0.0
51125.0,STARLINK-3387,PAYLOAD,2022-06-09 13:36:59,15.08836347,0.000154,53.2176,325.3558,59.9113,300.2032,-1.7194000000000002e-05,-5.62e-06,0.0,0 STARLINK-3387,1 51125U 22005X   22160.56735540 -.00000562  00000-0 -17194-4 0  9990,2 51125  53.2176 325.3558 0001540  59.9113 300.2032 15.08836347 23155,6917.892,95.438,540.822,538.691,0.0
51125.0,STARLINK-3387,PAYLOAD,2022-06-09 19:58:31,15.08839996,0.0001516,53.2186,324.1661,55.1032,305.0103,-2.1996e-05,-6.38e-06,0.0,0 STARLINK-3387,1 51125U 22005X   22160.83231386 -.00000638  00000-0 -21996-4 0  9998,2 51125  53.2186 324.1661 0001516  55.1032 305.0103 15.08839996 22074,6917.88,95.438,540.794,538.697,0.0
51125.0,STARLINK-3387,PAYLOAD,2022-06-10 13:27:45,15.08844825,0.0001519,53.2187,320.8952,58.2673,301.8467,9.631e-05,1.245e-05,0.0,0 STARLINK-3387,1 51125U 22005X   22161.56094773  .00001245  00000-0  96310-4 0  9991,2 51125  53.2187 320.8952 0001519  58.2673 301.8467 15.08844825 22185,6917.866,95.437,540.781,538.68,0.0
51125.0,STARLINK-3387,PAYLOAD,2022-06-10 19:49:18,15.08842313,0.0001323,53.2184,319.706,55.0293,305.0824,4.9697e-05,5.03e-06,0.0,0 STARLINK-3387,1 51125U 22005X   22161.82590987  .00000503  00000-0  49697-4 0  9990,2 51125  53.2184 319.7060 0001323  55.0293 305.0824 15.08842313 22223,6917.873000000001,95.437,540.654,538.823,0.0
51125.0,STARLINK-3387,PAYLOAD,2022-06-11 03:46:14,15.08838847,0.0001440999999999,53.2184,318.2193,53.8474,306.2651,-1.8666e-06,-3.18e-06,0.0,0 STARLINK-3387,1 51125U 22005X   22162.15711430 -.00000318  00000-0 -18666-5 0  9994,2 51125  53.2184 318.2193 0001441  53.8474 306.2651 15.08838847 23399,6917.884,95.438,540.746,538.752,0.0
51125.0,STARLINK-3387,PAYLOAD,2022-06-11 10:07:45,15.08884203,0.0001531999999999,53.2184,317.0295,42.5494,317.5616,-0.00065222,-0.00010666,0.0,0 STARLINK-3387,1 51125U 22005X   22162.42205504 -.00010666  00000-0 -65222-3 0  9999,2 51125  53.2184 317.0295 0001532  42.5494 317.5616 15.08884203 23435,6917.745,95.435,540.67,538.55,0.0
51125.0,STARLINK-3387,PAYLOAD,2022-06-11 19:40:05,15.08845145,0.0001419999999999,53.2186,315.2457,54.1793,305.9331,0.00010708,1.417e-05,0.0,0 STARLINK-3387,1 51125U 22005X   22162.81950954  .00001417  00000-0  10708-3 0  9999,2 51125  53.2186 315.2457 0001420  54.1793 305.9331 15.08845145 23497,6917.865,95.437,540.712,538.747,0.0
51125.0,STARLINK-3387,PAYLOAD,2022-06-12 13:09:20,15.08844297,0.0001606,53.2175,311.9742,61.027,299.0883,3.0145e-05,1.92e-06,0.0,0 STARLINK-3387,1 51125U 22005X   22163.54815106  .00000192  00000-0  30145-4 0  9996,2 51125  53.2175 311.9742 0001606  61.0270 299.0883 15.08844297 22488,6917.8669999999975,95.437,540.8430000000002,538.621,0.0
51125.0,STARLINK-3387,PAYLOAD,2022-06-12 19:30:52,15.0884411,0.0001549,53.2177,310.7847,60.2039,299.9107,3.2176e-05,2.24e-06,0.0,0 STARLINK-3387,1 51125U 22005X   22163.81311045  .00000224  00000-0  32176-4 0  9991,2 51125  53.2177 310.7847 0001549  60.2039 299.9107 15.08844110 22520,6917.868,95.437,540.804,538.661,0.0
51125.0,STARLINK-3387,PAYLOAD,2022-06-13 09:49:20,15.08842906,0.0001603,53.2175,308.1084,62.1668,297.9487,6.477100000000001e-05,7.43e-06,0.0,0 STARLINK-3387,1 51125U 22005X   22164.40927037  .00000743  00000-0  64771-4 0  9993,2 51125  53.2175 308.1084 0001603  62.1668 297.9487 15.08842906 22612,6917.871999999999,95.437,540.845,538.628,0.0
51125.0,STARLINK-3387,PAYLOAD,2022-06-13 16:10:53,15.08845487,0.0001694,53.2173,306.9198,59.438,300.6779,6.2131e-05,7.01e-06,0.0,0 STARLINK-3387,1 51125U 22005X   22164.67422821  .00000701  00000-0  62131-4 0  9995,2 51125  53.2173 306.9198 0001694  59.4380 300.6779 15.08845487 22659,6917.864000000001,95.437,540.901,538.557,0.0
51125.0,STARLINK-3387,PAYLOAD,2022-06-14 09:40:07,15.08842893,0.0001573,53.2169,303.6488,56.0601,304.0541,0.00010212,1.338e-05,0.0,0 STARLINK-3387,1 51125U 22005X   22165.40286881  .00001338  00000-0  10212-3 0  9990,2 51125  53.2169 303.6488 0001573  56.0601 304.0541 15.08842893 23884,6917.871999999999,95.437,540.825,538.648,0.0
51125.0,STARLINK-3387,PAYLOAD,2022-06-14 19:12:27,15.08836246,0.0001519,53.2179,301.8647,52.9617,307.1514,9.0646e-06,-1.44e-06,0.0,0 STARLINK-3387,1 51125U 22005X   22165.80031596 -.00000144  00000-0  90646-5 0  9991,2 51125  53.2179 301.8647 0001519  52.9617 307.1514 15.08836246 23940,6917.892,95.438,540.808,538.706,0.0
51125.0,STARLINK-3387,PAYLOAD,2022-06-15 09:30:56,15.088302800000005,0.0001686999999999,53.2181,299.1882,67.4836,292.6334,-2.499e-05,-6.86e-06,0.0,0 STARLINK-3387,1 51125U 22005X   22166.39648309 -.00000686  00000-0 -24990-4 0  9992,2 51125  53.2181 299.1882 0001687  67.4836 292.6334 15.08830280 24034,6917.91,95.438,540.942,538.6080000000002,0.0
51125.0,STARLINK-3387,PAYLOAD,2022-06-15 15:52:28,15.08832619,0.000162,53.218,297.9989,61.2289,298.8866,-2.2432e-05,-6.45e-06,0.0,0 STARLINK-3387,1 51125U 22005X   22166.66144305 -.00000645  00000-0 -22432-4 0  9993,2 51125  53.2180 297.9989 0001620  61.2289 298.8866 15.08832619 22953,6917.903,95.438,540.889,538.6469999999998,0.0
51125.0,STARLINK-3387,PAYLOAD,2022-06-19 13:40:14,15.08833716,0.0001469,53.2173,280.4534,49.9895,310.1226,0.00020518,2.978e-05,0.0,0 STARLINK-3387,1 51125U 22005X   22170.56961304  .00002978  00000-0  20518-3 0  9994,2 51125  53.2173 280.4534 0001469  49.9895 310.1226 15.08833716 23548,6917.9,95.438,540.781,538.748,0.0
51125.0,STARLINK-3387,PAYLOAD,2022-06-19 16:51:00,15.08833649,0.000118,53.2183,279.8581,62.4427,297.6685,0.00020213,2.93e-05,0.0,0 STARLINK-3387,1 51125U 22005X   22170.70209286  .00002930  00000-0  20213-3 0  9994,2 51125  53.2183 279.8581 0001180  62.4427 297.6685 15.08833649 23569,6917.9,95.438,540.581,538.948,0.0
51125.0,STARLINK-3387,PAYLOAD,2022-06-20 07:09:28,15.08842007,0.0001593,53.2189,277.1821,89.0283,271.0892,0.00015131,2.121e-05,0.0,0 STARLINK-3387,1 51125U 22005X   22171.29825043  .00002121  00000-0  15131-3 0  9999,2 51125  53.2189 277.1821 0001593  89.0283 271.0892 15.08842007 24774,6917.874,95.437,540.841,538.637,0.0
51125.0,STARLINK-3387,PAYLOAD,2022-06-20 13:31:01,15.08840209,0.0001573,53.2186,275.9943,56.6031,303.5111,8.1158e-05,1.004e-05,0.0,0 STARLINK-3387,1 51125U 22005X   22171.56321451  .00001004  00000-0  81158-4 0  9995,2 51125  53.2186 275.9943 0001573  56.6031 303.5111 15.08840209 23698,6917.88,95.438,540.8330000000002,538.6569999999998,0.0
51125.0,STARLINK-3387,PAYLOAD,2022-06-20 16:41:47,15.08843479,0.0001646,53.2183,275.3994,55.019,305.0956,8.193799999999999e-05,1.016e-05,0.0,0 STARLINK-3387,1 51125U 22005X   22171.69569235  .00001016  00000-0  81938-4 0  9992,2 51125  53.2183 275.3994 0001646  55.0190 305.0956 15.08843479 23714,6917.87,95.437,540.873,538.596,0.0
51125.0,STARLINK-3387,PAYLOAD,2022-06-21 13:21:48,15.0884313,0.0001672,53.2178,271.5339,55.8207,304.2943,8.171199999999999e-05,1.013e-05,0.0,0 STARLINK-3387,1 51125U 22005X   22172.55680989  .00001013  00000-0  81712-4 0  9995,2 51125  53.2178 271.5339 0001672  55.8207 304.2943 15.08843130 24964,6917.871,95.437,540.8919999999998,538.5790000000002,0.0
51125.0,STARLINK-3387,PAYLOAD,2022-06-21 16:32:34,15.08843405,0.0001672,53.2179,270.9394,54.9978,305.1171,8.0512e-05,9.94e-06,0.0,0 STARLINK-3387,1 51125U 22005X   22172.68928945  .00000994  00000-0  80512-4 0  9990,2 51125  53.2179 270.9394 0001672  54.9978 305.1171 15.08843405 23860,6917.87,95.437,540.8919999999998,538.578,0.0
